[{"OBJECT_NAME":"STARLINK-1434","OBJECT_ID":"2020-035BH","EPOCH":"2026-03-09T05:47:35.213856","MEAN_MOTION":15.26724568,"ECCENTRICITY":0.00053438,"INCLINATION":53.0547,"RA_OF_ASC_NODE":22.1128,"ARG_OF_PERICENTER":88.04,"MEAN_ANOMALY":272.121,"EPHEMERIS_TYPE":0,"CLASSIFICATION_TYPE":"U","NORAD_CAT_ID":45712,"ELEMENT_SET_NO":999,"REV_AT_EPOCH":31932,"BSTAR":0.0020295208,"MEAN_MOTION_DOT":0.00054112,"MEAN_MOTION_DDOT":0},{"OBJECT_NAME":"STARLINK-31267","OBJECT_ID":"2024-068P","EPOCH":"2026-03-08T06:22:55.288416","MEAN_MOTION":15.27568172,"ECCENTRICITY":0.00011376,"INCLINATION":43.0021,"RA_OF_ASC_NODE":38.3404,"ARG_OF_PERICENTER":277.3139,"MEAN_ANOMALY":82.7584,"EPHEMERIS_TYPE":0,"CLASSIFICATION_TYPE":"U","NORAD_CAT_ID":59468,"ELEMENT_SET_NO":999,"REV_AT_EPOCH":10835,"BSTAR":-1.8480277e-5,"MEAN_MOTION_DOT":-7.7e-6,"MEAN_MOTION_DDOT":0}]
