STARLINK-1434           
1 45712U 20035BH  26068.24137979  .00054112  00000+0  20295-2 0  9995
2 45712  53.0547  22.1128 0005343  88.0400 272.1210 15.26724568319325
STARLINK-31267          
1 59468U 24068P   26067.26591769 -.00000770  00000+0 -18480-4 0  9998
2 59468  43.0021  38.3404 0001137 277.3139  82.7584 15.27568172108355
